[{"OBJECT_NAME":"LUSAT (LO-19)","OBJECT_ID":"1990-005G","EPOCH":"2026-03-09T14:54:14.260896","MEAN_MOTION":14.34087969,"ECCENTRICITY":0.001234,"INCLINATION":98.8938,"RA_OF_ASC_NODE":87.6461,"ARG_OF_PERICENTER":134.6824,"MEAN_ANOMALY":225.5367,"EPHEMERIS_TYPE":0,"CLASSIFICATION_TYPE":"U","NORAD_CAT_ID":20442,"ELEMENT_SET_NO":999,"REV_AT_EPOCH":88812,"BSTAR":8.4338e-5,"MEAN_MOTION_DOT":1.89e-6,"MEAN_MOTION_DDOT":0},{"OBJECT_NAME":"METEOR 2-8 DEB","OBJECT_ID":"1982-025AY","EPOCH":"2026-03-03T07:06:32.265792","MEAN_MOTION":14.29428118,"ECCENTRICITY":0.00265518,"INCLINATION":82.501,"RA_OF_ASC_NODE":275.2754,"ARG_OF_PERICENTER":12.8656,"MEAN_ANOMALY":347.32,"EPHEMERIS_TYPE":0,"CLASSIFICATION_TYPE":"U","NORAD_CAT_ID":36861,"ELEMENT_SET_NO":999,"REV_AT_EPOCH":65087,"BSTAR":0.0011131306,"MEAN_MOTION_DOT":2.865e-5,"MEAN_MOTION_DDOT":0}]
